NORAD_CAT_ID,OBJECT_NAME,OBJECT_TYPE,EPOCH,MEAN_MOTION,ECCENTRICITY,INCLINATION,RA_OF_ASC_NODE,ARG_OF_PERICENTER,MEAN_ANOMALY,BSTAR,MEAN_MOTION_DOT,MEAN_MOTION_DDOT,TLE_LINE0,TLE_LINE1,TLE_LINE2,SEMIMAJOR_AXIS,PERIOD,APOGEE,PERIGEE,DECAYED
50166.0,STARLINK-3305,PAYLOAD,2022-11-10 03:24:46,15.08808968,0.0002614,53.2175,305.9246,24.7186,335.3931,-0.00063521,-0.00010376,0.0,0 STARLINK-3305,1 50166U 21125L   22314.14220432 -.00010376  00000-0 -63521-3 0  9998,2 50166  53.2175 305.9246 0002614  24.7186 335.3931 15.08808968 50008,6917.975,95.44,541.649,538.0319999999998,0.0
50166.0,STARLINK-3305,PAYLOAD,2022-11-10 11:21:42,15.0881415,0.0002644,53.2173,304.4381,23.3469,336.7643,-0.00038953,-6.478e-05,0.0,0 STARLINK-3305,1 50166U 21125L   22314.47341167 -.00006478  00000-0 -38953-3 0  9992,2 50166  53.2173 304.4381 0002644  23.3469 336.7643 15.08814150 53134,6917.959,95.439,541.654,537.995,0.0
50166.0,STARLINK-3305,PAYLOAD,2022-11-10 16:07:52,15.08815955,0.0002589,53.2173,303.5459,23.2497,336.8612,-0.00025931,-4.41e-05,0.0,0 STARLINK-3305,1 50166U 21125L   22314.67213386 -.00004410  00000-0 -25931-3 0  9991,2 50166  53.2173 303.5459 0002589  23.2497 336.8612 15.08815955 50080,6917.954000000002,95.439,541.61,538.028,0.0
50166.0,STARLINK-3305,PAYLOAD,2022-11-11 11:12:31,15.08830031,0.0002585,53.2172,299.9776,21.6162,338.4939,0.00096924,0.00015167,0.0,0 STARLINK-3305,1 50166U 21125L   22315.46702911  .00015167  00000-0  96924-3 0  9995,2 50166  53.2172 299.9776 0002585  21.6162 338.4939 15.08830031 53283,6917.911,95.438,541.564,537.988,0.0
50166.0,STARLINK-3305,PAYLOAD,2022-11-12 06:17:09,15.08833454,0.0002747,53.217,296.4095,27.4803,332.6334,0.00010494,1.382e-05,0.0,0 STARLINK-3305,1 50166U 21125L   22316.26191123  .00001382  00000-0  10494-3 0  9993,2 50166  53.2170 296.4095 0002747  27.4803 332.6334 15.08833454 50322,6917.9,95.438,541.6659999999998,537.865,0.0
50166.0,STARLINK-3305,PAYLOAD,2022-11-12 11:03:18,15.08834711,0.0002762,53.2169,295.5174,26.5975,333.5158,0.00010564,1.393e-05,0.0,0 STARLINK-3305,1 50166U 21125L   22316.46063234  .00001393  00000-0  10564-3 0  9996,2 50166  53.2169 295.5174 0002762  26.5975 333.5158 15.08834711 53431,6917.897,95.438,541.672,537.851,0.0
50166.0,STARLINK-3305,PAYLOAD,2022-11-13 06:07:56,15.08850594,0.0002864,53.2167,291.9498,29.7679,330.3476,0.0011152999999999,0.00017512,0.0,0 STARLINK-3305,1 50166U 21125L   22317.25551323  .00017512  00000-0  11153-2 0  9999,2 50166  53.2167 291.9498 0002864  29.7679 330.3476 15.08850594 50473,6917.848000000001,95.437,541.694,537.732,0.0
50166.0,STARLINK-3305,PAYLOAD,2022-11-13 15:40:14,15.08866809,0.0002824,53.2165,290.1655,30.6887,329.427,0.0011521,0.00018109,0.0,0 STARLINK-3305,1 50166U 21125L   22317.65294764  .00018109  00000-0  11521-2 0  9998,2 50166  53.2165 290.1655 0002824  30.6887 329.4270 15.08866809 53611,6917.7980000000025,95.436,541.617,537.71,0.0
50166.0,STARLINK-3305,PAYLOAD,2022-11-14 04:23:19,15.08858925,0.0002702,53.2173,287.7869,30.8329,329.2821,0.00022784,3.341e-05,0.0,0 STARLINK-3305,1 50166U 21125L   22318.18286247  .00003341  00000-0  22784-3 0  9990,2 50166  53.2173 287.7869 0002702  30.8329 329.2821 15.08858925 50614,6917.823,95.436,541.557,537.818,0.0
50166.0,STARLINK-3305,PAYLOAD,2022-11-14 15:31:01,15.0885231,0.0002811,53.2164,285.7051,27.8731,332.2412,0.00020894,3.04e-05,0.0,0 STARLINK-3305,1 50166U 21125L   22318.64654122  .00003040  00000-0  20894-3 0  9998,2 50166  53.2164 285.7051 0002811  27.8731 332.2412 15.08852310 53760,6917.843000000003,95.437,541.6519999999998,537.763,0.0
50166.0,STARLINK-3305,PAYLOAD,2022-11-14 21:52:33,15.08852468,0.0002837,53.2155,284.5158,26.5694,333.5443,0.00033139,4.992e-05,0.0,0 STARLINK-3305,1 50166U 21125L   22318.91149923  .00004992  00000-0  33139-3 0  9999,2 50166  53.2155 284.5158 0002837  26.5694 333.5443 15.08852468 50722,6917.842,95.437,541.67,537.745,0.0
50166.0,STARLINK-3305,PAYLOAD,2022-11-15 04:14:06,15.0885198,0.0002884,53.2166,283.3269,28.7256,331.3895,0.00011845,1.598e-05,0.0,0 STARLINK-3305,1 50166U 21125L   22319.17645880  .00001598  00000-0  11845-3 0  9990,2 50166  53.2166 283.3269 0002884  28.7256 331.3895 15.08851980 53845,6917.844,95.437,541.7040000000002,537.714,0.0
50166.0,STARLINK-3305,PAYLOAD,2022-11-16 04:04:52,15.08857899,0.0002982,53.2172,278.8649,32.9921,327.1257,-9.5277e-05,-1.806e-05,0.0,0 STARLINK-3305,1 50166U 21125L   22320.17004945 -.00001806  00000-0 -95277-4 0  9999,2 50166  53.2172 278.8649 0002982  32.9921 327.1257 15.08857899 50913,6917.826,95.436,541.754,537.628,0.0
50166.0,STARLINK-3305,PAYLOAD,2022-11-16 08:51:02,15.08845053,0.0002988,53.2171,277.9742,27.8678,332.2474,6.8784e-08,-2.88e-06,0.0,0 STARLINK-3305,1 50166U 21125L   22320.36877627 -.00000288  00000-0  68784-7 0  9993,2 50166  53.2171 277.9742 0002988  27.8678 332.2474 15.08845053 50944,6917.865,95.437,541.797,537.663,0.0
50166.0,STARLINK-3305,PAYLOAD,2022-11-17 08:41:49,15.08840495,0.0002827,53.2181,273.5128,30.231,329.8845,7.2223e-05,8.61e-06,0.0,0 STARLINK-3305,1 50166U 21125L   22321.36237919  .00000861  00000-0  72223-4 0  9994,2 50166  53.2181 273.5128 0002827  30.2310 329.8845 15.08840495 51094,6917.879,95.438,541.7,537.788,0.0
50166.0,STARLINK-3305,PAYLOAD,2022-11-18 05:21:50,15.08843061,0.000277,53.218,269.6474,32.1554,327.9606,-3.7529e-05,-8.86e-06,0.0,0 STARLINK-3305,1 50166U 21125L   22322.22349824 -.00000886  00000-0 -37529-4 0  9998,2 50166  53.2180 269.6474 0002770  32.1554 327.9606 15.08843061 54304,6917.871,95.437,541.6519999999998,537.82,0.0
50166.0,STARLINK-3305,PAYLOAD,2022-11-18 13:18:45,15.08851024,0.0002729,53.2179,268.1607,30.4152,329.6998,1.075e-05,-1.17e-06,0.0,0 STARLINK-3305,1 50166U 21125L   22322.55469164 -.00000117  00000-0  10750-4 0  9997,2 50166  53.2179 268.1607 0002729  30.4152 329.6998 15.08851024 51277,6917.847,95.437,541.6,537.8240000000002,0.0
50166.0,STARLINK-3305,PAYLOAD,2022-11-19 03:37:14,15.08839711,0.0002829,53.2182,265.4844,31.3639,328.7521,0.00012009,1.623e-05,0.0,0 STARLINK-3305,1 50166U 21125L   22323.15085882  .00001623  00000-0  12009-3 0  9995,2 50166  53.2182 265.4844 0002829  31.3639 328.7521 15.08839711 51366,6917.880999999999,95.438,541.703,537.789,0.0
50166.0,STARLINK-3305,PAYLOAD,2022-11-19 06:48:00,15.08840187,0.0002844,53.2182,264.8897,31.5906,328.5256,0.00011877,1.602e-05,0.0,0 STARLINK-3305,1 50166U 21125L   22323.28333871  .00001602  00000-0  11877-3 0  9992,2 50166  53.2182 264.8897 0002844  31.5906 328.5256 15.08840187 54469,6917.88,95.438,541.712,537.7769999999998,0.0
50166.0,STARLINK-3305,PAYLOAD,2022-11-19 19:31:04,15.08846909,0.0002801,53.2183,262.5106,31.7871,328.329,0.00012636,1.724e-05,0.0,0 STARLINK-3305,1 50166U 21125L   22323.81325189  .00001724  00000-0  12636-3 0  9993,2 50166  53.2183 262.5106 0002801  31.7871 328.3290 15.08846909 54547,6917.859,95.437,541.6619999999998,537.7869999999998,0.0
50166.0,STARLINK-3305,PAYLOAD,2022-11-20 05:03:24,15.08820798,0.0002835,53.2187,260.7263,34.6493,325.4683,0.00050624,7.774e-05,0.0,0 STARLINK-3305,1 50166U 21125L   22324.21070255  .00007774  00000-0  50624-3 0  9999,2 50166  53.2187 260.7263 0002835  34.6493 325.4683 15.08820798 51521,6917.939,95.439,541.765,537.8430000000002,0.0
50166.0,STARLINK-3305,PAYLOAD,2022-11-20 13:00:18,15.08860994,0.0003035,53.2187,259.2393,29.852,330.2644,-4.1873e-05,-9.56e-06,0.0,0 STARLINK-3305,1 50166U 21125L   22324.54188411 -.00000956  00000-0 -41873-4 0  9993,2 50166  53.2187 259.2393 0003035  29.8520 330.2644 15.08860994 51576,6917.816,95.436,541.781,537.582,0.0
50166.0,STARLINK-3305,PAYLOAD,2022-11-21 04:54:11,15.08833686,0.0002805,53.2186,256.266,30.6979,329.4177,-5.8145000000000025e-06,-3.81e-06,0.0,0 STARLINK-3305,1 50166U 21125L   22325.20430384 -.00000381  00000-0 -58145-5 0  9999,2 50166  53.2186 256.2660 0002805  30.6979 329.4177 15.08833686 51671,6917.9,95.438,541.705,537.8240000000002,0.0
50166.0,STARLINK-3305,PAYLOAD,2022-11-21 12:51:07,15.08839022,0.0002804,53.2186,254.7794,30.9071,329.2086,2.8787e-05,1.7e-06,0.0,0 STARLINK-3305,1 50166U 21125L   22325.53550035  .00000170  00000-0  28787-4 0  9993,2 50166  53.2186 254.7794 0002804  30.9071 329.2086 15.08839022 54802,6917.8830000000025,95.438,541.688,537.809,0.0
50166.0,STARLINK-3305,PAYLOAD,2022-11-21 19:12:39,15.08843006,0.0002813,53.2185,253.5897,31.2614,328.8545,5.5346e-05,5.92e-06,0.0,0 STARLINK-3305,1 50166U 21125L   22325.80045736  .00000592  00000-0  55346-4 0  9999,2 50166  53.2185 253.5897 0002813  31.2614 328.8545 15.08843006 54845,6917.871,95.437,541.682,537.79,0.0
50166.0,STARLINK-3305,PAYLOAD,2022-11-22 04:44:58,15.0884779,0.0002893,53.2178,251.8059,32.3499,327.767,0.00021084,3.069e-05,0.0,0 STARLINK-3305,1 50166U 21125L   22326.19789371  .00003069  00000-0  21084-3 0  9995,2 50166  53.2178 251.8059 0002893  32.3499 327.7670 15.08847790 51825,6917.857,95.437,541.7230000000002,537.72,0.0
50166.0,STARLINK-3305,PAYLOAD,2022-11-22 12:41:52,15.08861986,0.0002863,53.2179,250.3192,29.1789,330.9363,-0.00010988,-2.038e-05,0.0,0 STARLINK-3305,1 50166U 21125L   22326.52908431 -.00002038  00000-0 -10988-3 0  9990,2 50166  53.2179 250.3192 0002863  29.1789 330.9363 15.08861986 51874,6917.813,95.436,541.659,537.698,0.0
50166.0,STARLINK-3305,PAYLOAD,2022-11-23 04:35:45,15.08831878,0.0002943,53.2172,247.3444,27.5436,332.5712,-7.0575e-05,-1.411e-05,0.0,0 STARLINK-3305,1 50166U 21125L   22327.19150111 -.00001411  00000-0 -70575-4 0  9991,2 50166  53.2172 247.3444 0002943  27.5436 332.5712 15.08831878 51977,6917.905,95.438,541.806,537.734,0.0
50166.0,STARLINK-3305,PAYLOAD,2022-11-23 06:11:08,15.08835324,0.0002975,53.2175,247.0479,29.4535,330.6624,-0.00010293,-1.926e-05,0.0,0 STARLINK-3305,1 50166U 21125L   22327.25774110 -.00001926  00000-0 -10293-3 0  9990,2 50166  53.2175 247.0479 0002975  29.4535 330.6624 15.08835324 55066,6917.895,95.438,541.818,537.702,0.0
